NOAA 15                 
1 25338U 98030A   22021.57341518  .00000056  00000-0  41684-4 0  9990
2 25338  98.6615  52.9053 0010467  11.5818 348.5601 14.26083924232333
